<?xml version="1.0" encoding="utf-8"?>
<gpx xmlns="http://www.topografix.com/GPX/1/1" version="1.1" creator="https://mapy.com/">
	<trk>
		<name>Route from 50.365102N, 15.006588E to Sládečkova</name>
		<trkseg>
			<trkpt lat="50.365103" lon="15.006591">
				<ele>228.000000</ele>
			</trkpt>
			<trkpt lat="50.364834" lon="15.004812">
				<ele>227.000000</ele>
			</trkpt>
			<trkpt lat="50.364593" lon="15.003392">
				<ele>227.000000</ele>
			</trkpt>
			<trkpt lat="50.364559" lon="15.003006">
				<ele>226.000000</ele>
			</trkpt>
			<trkpt lat="50.364547" lon="15.002610">
				<ele>226.000000</ele>
			</trkpt>
			<trkpt lat="50.364536" lon="15.002180">
				<ele>226.000000</ele>
			</trkpt>
			<trkpt lat="50.364536" lon="15.001488">
				<ele>226.000000</ele>
			</trkpt>
			<trkpt lat="50.364559" lon="15.000293">
				<ele>225.000000</ele>
			</trkpt>
			<trkpt lat="50.364593" lon="14.999153">
				<ele>225.000000</ele>
			</trkpt>
			<trkpt lat="50.364627" lon="14.998092">
				<ele>225.000000</ele>
			</trkpt>
			<trkpt lat="50.364690" lon="14.996683">
				<ele>225.000000</ele>
			</trkpt>
			<trkpt lat="50.364800" lon="14.994266">
				<ele>225.000000</ele>
			</trkpt>
			<trkpt lat="50.364994" lon="14.989738">
				<ele>225.000000</ele>
			</trkpt>
			<trkpt lat="50.365086" lon="14.987771">
				<ele>225.000000</ele>
			</trkpt>
			<trkpt lat="50.365195" lon="14.985767">
				<ele>223.000000</ele>
			</trkpt>
			<trkpt lat="50.365201" lon="14.985337">
				<ele>223.000000</ele>
			</trkpt>
			<trkpt lat="50.365201" lon="14.984985">
				<ele>223.000000</ele>
			</trkpt>
			<trkpt lat="50.365183" lon="14.984618">
				<ele>223.000000</ele>
			</trkpt>
			<trkpt lat="50.365160" lon="14.984312">
				<ele>222.000000</ele>
			</trkpt>
			<trkpt lat="50.365115" lon="14.984016">
				<ele>222.000000</ele>
			</trkpt>
			<trkpt lat="50.365052" lon="14.983719">
				<ele>222.000000</ele>
			</trkpt>
			<trkpt lat="50.364977" lon="14.983423">
				<ele>222.000000</ele>
			</trkpt>
			<trkpt lat="50.364868" lon="14.983073">
				<ele>221.000000</ele>
			</trkpt>
			<trkpt lat="50.364868" lon="14.983073">
				<ele>221.000000</ele>
			</trkpt>
			<trkpt lat="50.364249" lon="14.982632">
				<ele>221.000000</ele>
			</trkpt>
			<trkpt lat="50.363945" lon="14.982425">
				<ele>220.000000</ele>
			</trkpt>
			<trkpt lat="50.363762" lon="14.982282">
				<ele>220.000000</ele>
			</trkpt>
			<trkpt lat="50.363591" lon="14.982121">
				<ele>220.000000</ele>
			</trkpt>
			<trkpt lat="50.363413" lon="14.981905">
				<ele>220.000000</ele>
			</trkpt>
			<trkpt lat="50.363269" lon="14.981698">
				<ele>220.000000</ele>
			</trkpt>
			<trkpt lat="50.363143" lon="14.981482">
				<ele>220.000000</ele>
			</trkpt>
			<trkpt lat="50.363035" lon="14.981285">
				<ele>220.000000</ele>
			</trkpt>
			<trkpt lat="50.362799" lon="14.980790">
				<ele>220.000000</ele>
			</trkpt>
			<trkpt lat="50.362656" lon="14.980530">
				<ele>220.000000</ele>
			</trkpt>
			<trkpt lat="50.362513" lon="14.980278">
				<ele>220.000000</ele>
			</trkpt>
			<trkpt lat="50.362369" lon="14.980064">
				<ele>220.000000</ele>
			</trkpt>
			<trkpt lat="50.362164" lon="14.979767">
				<ele>220.000000</ele>
			</trkpt>
			<trkpt lat="50.361946" lon="14.979498">
				<ele>220.000000</ele>
			</trkpt>
			<trkpt lat="50.361252" lon="14.978725">
				<ele>220.000000</ele>
			</trkpt>
			<trkpt lat="50.360949" lon="14.978366">
				<ele>220.000000</ele>
			</trkpt>
			<trkpt lat="50.360794" lon="14.978140">
				<ele>220.000000</ele>
			</trkpt>
			<trkpt lat="50.360461" lon="14.977628">
				<ele>221.000000</ele>
			</trkpt>
			<trkpt lat="50.360226" lon="14.977341">
				<ele>221.000000</ele>
			</trkpt>
			<trkpt lat="50.359871" lon="14.976928">
				<ele>222.000000</ele>
			</trkpt>
			<trkpt lat="50.359086" lon="14.976129">
				<ele>223.000000</ele>
			</trkpt>
			<trkpt lat="50.358868" lon="14.975877">
				<ele>223.000000</ele>
			</trkpt>
			<trkpt lat="50.358673" lon="14.975626">
				<ele>224.000000</ele>
			</trkpt>
			<trkpt lat="50.358536" lon="14.975437">
				<ele>224.000000</ele>
			</trkpt>
			<trkpt lat="50.358427" lon="14.975275">
				<ele>224.000000</ele>
			</trkpt>
			<trkpt lat="50.358111" lon="14.974727">
				<ele>225.000000</ele>
			</trkpt>
			<trkpt lat="50.357968" lon="14.974485">
				<ele>225.000000</ele>
			</trkpt>
			<trkpt lat="50.357882" lon="14.974359">
				<ele>225.000000</ele>
			</trkpt>
			<trkpt lat="50.357779" lon="14.974261">
				<ele>225.000000</ele>
			</trkpt>
			<trkpt lat="50.357653" lon="14.974179">
				<ele>225.000000</ele>
			</trkpt>
			<trkpt lat="50.357567" lon="14.974135">
				<ele>225.000000</ele>
			</trkpt>
			<trkpt lat="50.357258" lon="14.974018">
				<ele>225.000000</ele>
			</trkpt>
			<trkpt lat="50.356627" lon="14.973856">
				<ele>225.000000</ele>
			</trkpt>
			<trkpt lat="50.356507" lon="14.973829">
				<ele>225.000000</ele>
			</trkpt>
			<trkpt lat="50.356398" lon="14.973838">
				<ele>225.000000</ele>
			</trkpt>
			<trkpt lat="50.355991" lon="14.973955">
				<ele>224.000000</ele>
			</trkpt>
			<trkpt lat="50.355956" lon="14.973955">
				<ele>224.000000</ele>
			</trkpt>
			<trkpt lat="50.355922" lon="14.973936">
				<ele>224.000000</ele>
			</trkpt>
			<trkpt lat="50.355882" lon="14.973909">
				<ele>224.000000</ele>
			</trkpt>
			<trkpt lat="50.355848" lon="14.973882">
				<ele>224.000000</ele>
			</trkpt>
			<trkpt lat="50.355830" lon="14.973838">
				<ele>224.000000</ele>
			</trkpt>
			<trkpt lat="50.355819" lon="14.973793">
				<ele>224.000000</ele>
			</trkpt>
			<trkpt lat="50.355819" lon="14.973793">
				<ele>224.000000</ele>
			</trkpt>
			<trkpt lat="50.355814" lon="14.973785">
				<ele>224.000000</ele>
			</trkpt>
			<trkpt lat="50.355802" lon="14.973739">
				<ele>224.000000</ele>
			</trkpt>
			<trkpt lat="50.355802" lon="14.973695">
				<ele>224.000000</ele>
			</trkpt>
			<trkpt lat="50.355859" lon="14.973182">
				<ele>224.000000</ele>
			</trkpt>
			<trkpt lat="50.355945" lon="14.972148">
				<ele>223.000000</ele>
			</trkpt>
			<trkpt lat="50.355974" lon="14.971852">
				<ele>223.000000</ele>
			</trkpt>
			<trkpt lat="50.356019" lon="14.971529">
				<ele>223.000000</ele>
			</trkpt>
			<trkpt lat="50.356043" lon="14.971376">
				<ele>222.000000</ele>
			</trkpt>
			<trkpt lat="50.356054" lon="14.971242">
				<ele>222.000000</ele>
			</trkpt>
			<trkpt lat="50.356043" lon="14.970873">
				<ele>222.000000</ele>
			</trkpt>
			<trkpt lat="50.356037" lon="14.970577">
				<ele>222.000000</ele>
			</trkpt>
			<trkpt lat="50.356037" lon="14.970326">
				<ele>222.000000</ele>
			</trkpt>
			<trkpt lat="50.356088" lon="14.969535">
				<ele>221.000000</ele>
			</trkpt>
			<trkpt lat="50.356123" lon="14.969085">
				<ele>221.000000</ele>
			</trkpt>
			<trkpt lat="50.356151" lon="14.968439">
				<ele>221.000000</ele>
			</trkpt>
			<trkpt lat="50.356197" lon="14.967523">
				<ele>220.000000</ele>
			</trkpt>
			<trkpt lat="50.356243" lon="14.966894">
				<ele>220.000000</ele>
			</trkpt>
			<trkpt lat="50.356347" lon="14.965779">
				<ele>219.000000</ele>
			</trkpt>
			<trkpt lat="50.356410" lon="14.965277">
				<ele>219.000000</ele>
			</trkpt>
			<trkpt lat="50.356467" lon="14.964854">
				<ele>218.000000</ele>
			</trkpt>
			<trkpt lat="50.356536" lon="14.964460">
				<ele>218.000000</ele>
			</trkpt>
			<trkpt lat="50.356615" lon="14.964037">
				<ele>218.000000</ele>
			</trkpt>
			<trkpt lat="50.356971" lon="14.964127">
				<ele>218.000000</ele>
			</trkpt>
			<trkpt lat="50.357303" lon="14.964181">
				<ele>218.000000</ele>
			</trkpt>
			<trkpt lat="50.357499" lon="14.964198">
				<ele>219.000000</ele>
			</trkpt>
			<trkpt lat="50.357688" lon="14.964190">
				<ele>219.000000</ele>
			</trkpt>
			<trkpt lat="50.357877" lon="14.964163">
				<ele>219.000000</ele>
			</trkpt>
			<trkpt lat="50.358570" lon="14.964082">
				<ele>219.000000</ele>
			</trkpt>
			<trkpt lat="50.358714" lon="14.964055">
				<ele>220.000000</ele>
			</trkpt>
			<trkpt lat="50.358914" lon="14.963992">
				<ele>220.000000</ele>
			</trkpt>
			<trkpt lat="50.359155" lon="14.963929">
				<ele>220.000000</ele>
			</trkpt>
			<trkpt lat="50.359270" lon="14.963911">
				<ele>220.000000</ele>
			</trkpt>
			<trkpt lat="50.359837" lon="14.963839">
				<ele>221.000000</ele>
			</trkpt>
			<trkpt lat="50.360467" lon="14.963758">
				<ele>222.000000</ele>
			</trkpt>
			<trkpt lat="50.361413" lon="14.963642">
				<ele>224.000000</ele>
			</trkpt>
			<trkpt lat="50.362049" lon="14.963571">
				<ele>226.000000</ele>
			</trkpt>
			<trkpt lat="50.362129" lon="14.963445">
				<ele>226.000000</ele>
			</trkpt>
			<trkpt lat="50.363184" lon="14.963301">
				<ele>226.000000</ele>
			</trkpt>
			<trkpt lat="50.363344" lon="14.963273">
				<ele>226.000000</ele>
			</trkpt>
			<trkpt lat="50.363389" lon="14.963192">
				<ele>230.000000</ele>
			</trkpt>
			<trkpt lat="50.363436" lon="14.963103">
				<ele>230.000000</ele>
			</trkpt>
			<trkpt lat="50.363544" lon="14.962986">
				<ele>230.000000</ele>
			</trkpt>
			<trkpt lat="50.363544" lon="14.962986">
				<ele>230.000000</ele>
			</trkpt>
			<trkpt lat="50.363613" lon="14.962915">
				<ele>230.000000</ele>
			</trkpt>
			<trkpt lat="50.363688" lon="14.962816">
				<ele>230.000000</ele>
			</trkpt>
			<trkpt lat="50.363733" lon="14.962726">
				<ele>230.000000</ele>
			</trkpt>
			<trkpt lat="50.363814" lon="14.962555">
				<ele>230.000000</ele>
			</trkpt>
			<trkpt lat="50.363859" lon="14.962492">
				<ele>230.000000</ele>
			</trkpt>
			<trkpt lat="50.363802" lon="14.962393">
				<ele>230.000000</ele>
			</trkpt>
			<trkpt lat="50.363756" lon="14.962277">
				<ele>230.000000</ele>
			</trkpt>
			<trkpt lat="50.363751" lon="14.962150">
				<ele>230.000000</ele>
			</trkpt>
			<trkpt lat="50.363751" lon="14.962007">
				<ele>230.000000</ele>
			</trkpt>
			<trkpt lat="50.363756" lon="14.961854">
				<ele>230.000000</ele>
			</trkpt>
			<trkpt lat="50.363768" lon="14.961720">
				<ele>230.000000</ele>
			</trkpt>
			<trkpt lat="50.363802" lon="14.961585">
				<ele>230.000000</ele>
			</trkpt>
			<trkpt lat="50.363848" lon="14.961450">
				<ele>230.000000</ele>
			</trkpt>
			<trkpt lat="50.363865" lon="14.961414">
				<ele>230.000000</ele>
			</trkpt>
			<trkpt lat="50.363865" lon="14.961414">
				<ele>230.000000</ele>
			</trkpt>
			<trkpt lat="50.364049" lon="14.961001">
				<ele>230.000000</ele>
			</trkpt>
			<trkpt lat="50.364100" lon="14.960911">
				<ele>230.000000</ele>
			</trkpt>
			<trkpt lat="50.364152" lon="14.960831">
				<ele>230.000000</ele>
			</trkpt>
			<trkpt lat="50.364209" lon="14.960776">
				<ele>230.000000</ele>
			</trkpt>
			<trkpt lat="50.364272" lon="14.960741">
				<ele>230.000000</ele>
			</trkpt>
			<trkpt lat="50.364318" lon="14.960732">
				<ele>230.000000</ele>
			</trkpt>
			<trkpt lat="50.364358" lon="14.960732">
				<ele>230.000000</ele>
			</trkpt>
			<trkpt lat="50.364524" lon="14.960803">
				<ele>230.000000</ele>
			</trkpt>
			<trkpt lat="50.364622" lon="14.960839">
				<ele>230.000000</ele>
			</trkpt>
			<trkpt lat="50.364667" lon="14.960732">
				<ele>231.000000</ele>
			</trkpt>
			<trkpt lat="50.364828" lon="14.960875">
				<ele>232.000000</ele>
			</trkpt>
			<trkpt lat="50.365143" lon="14.961181">
				<ele>232.000000</ele>
			</trkpt>
			<trkpt lat="50.365195" lon="14.960408">
				<ele>232.000000</ele>
			</trkpt>
			<trkpt lat="50.365241" lon="14.959789">
				<ele>233.000000</ele>
			</trkpt>
			<trkpt lat="50.365275" lon="14.959223">
				<ele>233.000000</ele>
			</trkpt>
			<trkpt lat="50.365321" lon="14.958638">
				<ele>233.000000</ele>
			</trkpt>
			<trkpt lat="50.365378" lon="14.957992">
				<ele>233.000000</ele>
			</trkpt>
			<trkpt lat="50.365980" lon="14.958145">
				<ele>234.000000</ele>
			</trkpt>
			<trkpt lat="50.366347" lon="14.958225">
				<ele>234.000000</ele>
			</trkpt>
			<trkpt lat="50.366679" lon="14.958324">
				<ele>235.000000</ele>
			</trkpt>
			<trkpt lat="50.367321" lon="14.958495">
				<ele>236.000000</ele>
			</trkpt>
			<trkpt lat="50.367372" lon="14.958504">
				<ele>236.000000</ele>
			</trkpt>
		</trkseg>
	</trk>
</gpx>

