{"type":"FeatureCollection","name":"tracks","features":[{"type":"Feature","properties":{"name":"Kolo"},"geometry":{"type":"LineString","coordinates":[[15.003356,50.370237],[15.00377,50.369521],[15.003554,50.369475],[15.003725,50.369114],[15.003851,50.368828],[15.003878,50.368719],[15.003895,50.368593],[15.003914,50.368541],[15.003941,50.368192],[15.003994,50.367837],[15.004048,50.367533],[15.004093,50.367292],[15.004102,50.36704],[15.004048,50.366455],[15.004021,50.366266],[15.003977,50.36606],[15.003895,50.365808],[15.003501,50.364851],[15.003392,50.364593],[15.003321,50.364421],[15.003222,50.364134],[15.003149,50.363871],[15.003105,50.363636],[15.003078,50.36343],[15.003069,50.363126],[15.003069,50.362713],[15.003096,50.362306],[15.003132,50.361905],[15.003195,50.361527],[15.003249,50.361172],[15.003275,50.361057],[15.003375,50.360662],[15.003501,50.360255],[15.003671,50.359779],[15.003868,50.359223],[15.004165,50.358398],[15.004264,50.358043],[15.00439,50.357596],[15.004444,50.357315],[15.00447,50.357045],[15.00447,50.356919],[15.004453,50.356822],[15.004426,50.356713],[15.00439,50.356599],[15.004317,50.356478],[15.004246,50.356352],[15.003967,50.355934],[15.003742,50.355578],[15.003528,50.355223],[15.003321,50.354845],[15.002952,50.354277],[15.002899,50.354169],[15.002853,50.354071],[15.002826,50.353974],[15.002826,50.353882],[15.002853,50.353784],[15.002899,50.353693],[15.002952,50.353601],[15.003033,50.353521],[15.003123,50.353423],[15.003195,50.353343],[15.003249,50.353269],[15.003294,50.353177],[15.003348,50.352999],[15.003401,50.352776],[15.003446,50.352586],[15.003518,50.352432],[15.003581,50.352271],[15.003778,50.351956],[15.00395,50.351686],[15.00403,50.351526],[15.004093,50.351382],[15.00412,50.351228],[15.004128,50.351027],[15.004174,50.350534],[15.004191,50.350282],[15.004191,50.350253],[15.004174,50.349944],[15.004147,50.349583],[15.004102,50.349153],[15.004102,50.34905],[15.004093,50.348826],[15.004102,50.348591],[15.004128,50.348431],[15.004191,50.348293],[15.004228,50.348224],[15.004273,50.348179],[15.004398,50.348069],[15.00457,50.347972],[15.005818,50.347295],[15.006034,50.347181],[15.006195,50.34709],[15.006285,50.347043],[15.006357,50.346992],[15.006392,50.346917],[15.006447,50.346831],[15.006491,50.346728],[15.00651,50.346625],[15.006491,50.346499],[15.006384,50.34573],[15.006357,50.345444],[15.006357,50.345289],[15.006384,50.345123],[15.00642,50.34494],[15.006482,50.344751],[15.006537,50.344624],[15.006591,50.344521],[15.006662,50.344418],[15.006744,50.344332],[15.006931,50.344166],[15.007407,50.343787],[15.007543,50.343661],[15.007642,50.343575],[15.007731,50.343478],[15.007786,50.343386],[15.00783,50.343288],[15.007857,50.343186],[15.007866,50.343054],[15.007883,50.342899],[15.007883,50.342595],[15.007866,50.34244],[15.007839,50.342314],[15.007759,50.342073],[15.007614,50.341775],[15.007363,50.341328],[15.007264,50.341122],[15.007193,50.340886],[15.007166,50.34064],[15.00712,50.340003],[15.007138,50.339659],[15.007183,50.339407],[15.007309,50.338977],[15.007417,50.338547],[15.007444,50.338375],[15.007462,50.33822],[15.007462,50.337945],[15.007407,50.337566],[15.007336,50.337125],[15.007309,50.336919],[15.007318,50.336678],[15.007381,50.336345],[15.007587,50.335291],[15.007704,50.334654],[15.007759,50.334356],[15.007839,50.334104],[15.007929,50.333909],[15.008189,50.333439],[15.008531,50.332802],[15.008908,50.332154],[15.009034,50.331953],[15.009151,50.331781],[15.009277,50.331632],[15.009438,50.33146],[15.009636,50.331271],[15.009887,50.331047],[15.010112,50.330864],[15.010399,50.330652],[15.011002,50.330239],[15.011944,50.329636],[15.012394,50.329327],[15.01252,50.329229],[15.012627,50.329132],[15.01269,50.328977],[15.012717,50.328868],[15.012824,50.328387],[15.012897,50.328048],[15.012923,50.327853],[15.012942,50.327744],[15.012923,50.326947],[15.012942,50.32674],[15.012969,50.326637],[15.013013,50.326551],[15.013023,50.326522],[15.013139,50.326345],[15.01322,50.326219],[15.013273,50.326109],[15.013328,50.325949],[15.013462,50.325668],[15.013615,50.325674],[15.013669,50.325467],[15.013686,50.325399],[15.013686,50.325336],[15.013652,50.325278],[15.013598,50.325226],[15.013669,50.324992],[15.013715,50.324876],[15.013768,50.324796],[15.013812,50.324716],[15.013965,50.324572],[15.013975,50.32455],[15.014145,50.324435],[15.014262,50.324338],[15.014415,50.324154],[15.014568,50.323988],[15.014621,50.323884],[15.014667,50.323799],[15.014684,50.323695],[15.014684,50.323592],[15.014667,50.3235],[15.014621,50.323402],[15.014522,50.323236],[15.01437,50.323053],[15.014136,50.3228],[15.013193,50.321843],[15.012627,50.321218],[15.012501,50.321017],[15.012457,50.320931],[15.012447,50.320845],[15.01243,50.320776],[15.012447,50.320695],[15.012457,50.320603],[15.012483,50.320512],[15.012501,50.320477],[15.012583,50.320323],[15.012717,50.320139],[15.012969,50.319714],[15.01313,50.319468],[15.014388,50.318132],[15.014765,50.317707],[15.015124,50.317283],[15.015474,50.316846],[15.01577,50.316451],[15.016139,50.315946],[15.016445,50.315476],[15.016571,50.315218],[15.016858,50.314701],[15.016992,50.314409],[15.017047,50.314254],[15.016992,50.314225],[15.016939,50.31418],[15.016868,50.314128],[15.016814,50.314059],[15.016489,50.313267],[15.016319,50.31286],[15.016239,50.312602],[15.016176,50.312355],[15.016166,50.312097],[15.016166,50.311448],[15.016176,50.311179],[15.016212,50.310893],[15.016212,50.310709],[15.01622,50.310467],[15.01622,50.310296],[15.016202,50.310135],[15.016149,50.309991],[15.01604,50.309814],[15.016023,50.309791],[15.015889,50.30963],[15.015627,50.309344],[15.01543,50.309108],[15.015367,50.309005],[15.01525,50.308821],[15.015124,50.30858],[15.01507,50.308505],[15.014981,50.308454],[15.0149,50.308426],[15.014757,50.308408],[15.013283,50.308299],[15.013175,50.308282],[15.013049,50.308253],[15.012933,50.308219],[15.012824,50.308167],[15.012483,50.307995],[15.012304,50.307903],[15.012151,50.307852],[15.012061,50.30784],[15.011962,50.307834],[15.011854,50.30784],[15.011728,50.307863],[15.011541,50.307915],[15.011405,50.307949],[15.011162,50.308041],[15.010992,50.308087],[15.010732,50.30811],[15.010732,50.30811],[15.010669,50.30823],[15.010633,50.308316],[15.010615,50.308402],[15.010615,50.308546],[15.010633,50.30901],[15.010642,50.309137],[15.010633,50.309228],[15.010606,50.309315],[15.01056,50.309401],[15.010507,50.309481],[15.010417,50.309561],[15.010319,50.30963],[15.010183,50.309693],[15.009933,50.309802],[15.009707,50.309883],[15.009258,50.310026],[15.008944,50.310118],[15.008746,50.31017],[15.008549,50.310209],[15.008325,50.310244],[15.006123,50.310467],[15.005549,50.310525],[15.001317,50.315723],[15.000886,50.316267],[15.000239,50.317053],[14.999844,50.317541],[14.999484,50.317988],[14.998551,50.31913],[14.997994,50.319812],[14.997868,50.319956],[14.997159,50.320839],[14.996907,50.321126],[14.996071,50.322187],[14.995874,50.322427],[14.995577,50.3228],[14.995226,50.323219],[14.995065,50.323386],[14.99493,50.3235],[14.994742,50.323609],[14.994463,50.323741],[14.992568,50.324653],[14.99105,50.325364],[14.987977,50.326809],[14.987331,50.327113],[14.986935,50.327314],[14.986593,50.32752],[14.986144,50.327807],[14.985488,50.328248],[14.983404,50.329596],[14.983108,50.329785],[14.982884,50.3299],[14.982731,50.329958],[14.982578,50.330009],[14.982211,50.330101],[14.981662,50.330227],[14.98123,50.330342],[14.980853,50.330479],[14.980485,50.330629],[14.980045,50.330858],[14.979892,50.330944],[14.97974,50.331053],[14.979622,50.331145],[14.979533,50.331259],[14.979461,50.33138],[14.979389,50.331506],[14.979236,50.331924],[14.979192,50.331999],[14.979119,50.332062],[14.979039,50.332108],[14.978913,50.332142],[14.978769,50.33216],[14.978617,50.332171],[14.978114,50.332171],[14.977548,50.332148],[14.977305,50.33216],[14.977198,50.332171],[14.977081,50.332189],[14.976955,50.332223],[14.976829,50.332257],[14.976452,50.332401],[14.976156,50.332492],[14.97585,50.332573],[14.975464,50.332653],[14.975311,50.332681],[14.974961,50.332744],[14.974538,50.332796],[14.973343,50.332922],[14.97294,50.332956],[14.972211,50.333077],[14.971754,50.333158],[14.970334,50.333416],[14.970244,50.333432],[14.96985,50.333496],[14.969553,50.333524],[14.969185,50.333559],[14.968808,50.333616],[14.968601,50.333662],[14.96843,50.333702],[14.968206,50.333776],[14.96789,50.333891],[14.967792,50.333931],[14.967739,50.333966],[14.967684,50.334012],[14.96764,50.334046],[14.967594,50.334092],[14.967567,50.334155],[14.967531,50.334287],[14.967514,50.334362],[14.967496,50.334505],[14.967414,50.335078],[14.967414,50.335124],[14.967387,50.335313],[14.967343,50.335428],[14.96729,50.335537],[14.967208,50.335657],[14.966938,50.335944],[14.966885,50.33599],[14.966624,50.336248],[14.966525,50.336357],[14.966427,50.336437],[14.966328,50.3365],[14.966193,50.336575],[14.966221,50.336707],[14.966229,50.336959],[14.966265,50.337177],[14.966328,50.337555],[14.966345,50.337607],[14.966498,50.338513],[14.966525,50.338639],[14.966624,50.339476],[14.966697,50.339952],[14.966724,50.340359],[14.966724,50.340646],[14.966732,50.341133],[14.966724,50.341557],[14.966669,50.34193],[14.966598,50.342354],[14.966508,50.342687],[14.966435,50.342973],[14.966337,50.343265],[14.966013,50.344126],[14.965879,50.344515],[14.965708,50.34502],[14.965609,50.345323],[14.965556,50.345622],[14.96551,50.345908],[14.965429,50.346923],[14.965385,50.347284],[14.965313,50.347668],[14.965187,50.348442],[14.96507,50.34893],[14.965016,50.349056],[14.964944,50.349153],[14.964864,50.349233],[14.964613,50.349451],[14.964387,50.349675],[14.964226,50.349893],[14.9641,50.350127],[14.963921,50.3505],[14.963481,50.351394],[14.963273,50.351876],[14.963184,50.352105],[14.963148,50.352294],[14.963112,50.352489],[14.963112,50.352689],[14.963148,50.352885],[14.963175,50.353091],[14.963301,50.353756],[14.963355,50.354054],[14.963588,50.354971],[14.964037,50.356615],[14.964127,50.356971],[14.964181,50.357303],[14.964198,50.357499],[14.96419,50.357688],[14.964163,50.357877],[14.964082,50.35857],[14.964055,50.358714],[14.963992,50.358914],[14.963929,50.359155],[14.963911,50.35927],[14.963839,50.359837],[14.963758,50.360467],[14.963642,50.361413],[14.963571,50.362049],[14.963372,50.363969],[14.963319,50.364467],[14.963265,50.364776],[14.963175,50.365046],[14.963121,50.365298],[14.963076,50.365647],[14.963076,50.365745],[14.963095,50.365962],[14.963129,50.366329],[14.963156,50.36653],[14.963192,50.366805],[14.963202,50.366994],[14.963229,50.367275],[14.963229,50.367372],[14.963156,50.367682],[14.963005,50.368237],[14.962977,50.368335],[14.962923,50.368501],[14.962879,50.368679],[14.962806,50.369011],[14.962762,50.369172],[14.962825,50.369188],[14.962852,50.369217],[14.962879,50.369246],[14.962879,50.36928],[14.962852,50.369309],[14.962986,50.369389],[14.963085,50.369469],[14.963202,50.369607],[14.963256,50.36967],[14.963328,50.369721],[14.963426,50.369756],[14.963489,50.369773],[14.963489,50.369773],[14.963552,50.369796],[14.964171,50.369928],[14.964424,50.369991],[14.964648,50.370071],[14.964873,50.37018],[14.965142,50.37034],[14.965322,50.370466],[14.965645,50.370586],[14.965816,50.370633],[14.966022,50.370649],[14.966193,50.370649],[14.966345,50.370621],[14.966544,50.370552],[14.966661,50.370541],[14.966867,50.370529],[14.968726,50.370489],[14.969319,50.37046],[14.969616,50.370444],[14.969913,50.370409],[14.97019,50.370369],[14.97054,50.370318],[14.970649,50.3703],[14.971035,50.370237],[14.971395,50.370191],[14.971655,50.370163],[14.971907,50.370157],[14.972177,50.370145],[14.9725,50.370163],[14.972553,50.370208],[14.972634,50.370237],[14.972724,50.370255],[14.972903,50.370266],[14.973523,50.370318],[14.974764,50.370444],[14.975248,50.370472],[14.975689,50.370489],[14.976066,50.370478],[14.976488,50.370444],[14.977351,50.370346],[14.979416,50.37014],[14.979498,50.370128],[14.979748,50.370094],[14.979991,50.370048],[14.980261,50.369985],[14.980611,50.369899],[14.980917,50.369807],[14.981582,50.369607],[14.981806,50.369555],[14.981985,50.369538],[14.982309,50.369538],[14.982498,50.369538],[14.983054,50.369567],[14.983593,50.369584],[14.984043,50.369589],[14.984888,50.369636],[14.985291,50.369647],[14.985408,50.369636],[14.985517,50.369618],[14.985668,50.369652],[14.985785,50.36967],[14.98601,50.36967],[14.98618,50.369664],[14.986379,50.369636],[14.986603,50.369584],[14.986756,50.369538],[14.987672,50.369269],[14.98848,50.369034],[14.988696,50.368965],[14.989001,50.368828],[14.989388,50.368673],[14.989711,50.368776],[14.991014,50.369109],[14.991562,50.369251],[14.992262,50.369447],[14.992478,50.369503],[14.992649,50.369538],[14.992811,50.369567],[14.993044,50.369584],[14.993205,50.369589],[14.993501,50.369601],[14.994104,50.369589],[14.995191,50.369521],[14.995461,50.369503],[14.997283,50.369406],[14.998317,50.369361],[14.999736,50.369314],[15.000168,50.369303],[15.000589,50.369303],[15.000868,50.36932],[15.001335,50.369349],[15.001452,50.369349],[15.001704,50.369361],[15.002,50.369349],[15.002107,50.369343],[15.002422,50.36932],[15.002656,50.36932],[15.002845,50.369332],[15.003033,50.369349],[15.003222,50.369383],[15.003401,50.369429],[15.003554,50.369475],[15.003725,50.369114],[15.003851,50.368828],[15.003878,50.368719],[15.003895,50.368593],[15.003914,50.368541],[15.003941,50.368192],[15.003994,50.367837],[15.004048,50.367533],[15.004093,50.367292],[15.004102,50.36704],[15.004048,50.366455],[15.004021,50.366266],[15.003977,50.36606],[15.003895,50.365808],[15.004048,50.365734],[15.004228,50.365665],[15.00447,50.36559],[15.004749,50.36551],[15.005755,50.365269],[15.005809,50.365258],[15.006015,50.365229],[15.006258,50.365212],[15.006357,50.365206],[15.006438,50.365183],[15.00651,50.36516],[15.0066,50.365109]]}}]}